[{"OBJECT_NAME":"STARLINK-3936","OBJECT_ID":"2022-053U","EPOCH":"2026-03-09T12:26:18.857184","MEAN_MOTION":15.08841521,"ECCENTRICITY":0.00014615,"INCLINATION":53.2188,"RA_OF_ASC_NODE":154.8927,"ARG_OF_PERICENTER":81.1626,"MEAN_ANOMALY":278.9532,"EPHEMERIS_TYPE":0,"CLASSIFICATION_TYPE":"U","NORAD_CAT_ID":52674,"ELEMENT_SET_NO":999,"REV_AT_EPOCH":21102,"BSTAR":1.4529435e-5,"MEAN_MOTION_DOT":-5.7e-7,"MEAN_MOTION_DDOT":0},{"OBJECT_NAME":"NEONSAT-1A","OBJECT_ID":"2026-019A","EPOCH":"2026-03-09T21:53:31.879392","MEAN_MOTION":15.0780294,"ECCENTRICITY":0.00137261,"INCLINATION":97.411,"RA_OF_ASC_NODE":192.4819,"ARG_OF_PERICENTER":167.4713,"MEAN_ANOMALY":192.686,"EPHEMERIS_TYPE":0,"CLASSIFICATION_TYPE":"U","NORAD_CAT_ID":67614,"ELEMENT_SET_NO":999,"REV_AT_EPOCH":585,"BSTAR":0.00027109929,"MEAN_MOTION_DOT":4.096e-5,"MEAN_MOTION_DDOT":0}]
